OSCAR 7 (AO-7)          
1 07530U 74089B   20091.98808470 -.00000019  00000-0  16650-3 0  9991
2 07530 101.7918  62.1875 0012304 151.6696 252.8018 12.53642736 76285
UOSAT 2 (UO-11)         
1 14781U 84021B   20092.10942023  .00000079  00000-0  15760-4 0  9999
2 14781  97.5950 107.9132 0010038  95.1337 265.1023 14.83153263920366
LUSAT (LO-19)           
1 20442U 90005G   20091.86594467  .00000019  00000-0  23350-4 0  9994
2 20442  98.6844  38.8855 0012329  28.3228 331.8623 14.32948650577447
ITAMSAT (IO-26)         
1 22826U 93061D   20091.99546482 -.00000003  00000-0  16979-4 0  9998
2 22826  98.9179  92.4533 0008142 226.1416 133.9093 14.30416213382970
RADIO ROSTO (RS-15)     
1 23439U 94085A   20092.13894588 -.00000038  00000-0  13421-3 0  9992
2 23439  64.8205  11.2807 0147539  56.9182 304.5809 11.27568871 40309
JAS-2 (FO-29)           
1 24278U 96046B   20092.11802977 -.00000029  00000-0  77833-5 0  9991
2 24278  98.5722 212.1189 0349825 214.9856 142.7844 13.53096943166420
TECHSAT 1B (GO-32)      
1 25397U 98043D   20092.41836080 -.00000006  00000-0  16652-4 0  9994
2 25397  98.7216  34.5302 0000385 337.9519  22.1643 14.23681925128810
ISS (ZARYA)             
1 25544U 98067A   20092.72544192  .00002366  00000-0  51218-4 0  9995
2 25544  51.6453   6.8151 0005212  77.6755  11.3213 15.48942244220169
PCSAT (NO-44)           
1 26931U 01043C   20092.05548977 -.00000023  00000-0  22826-4 0  9997
2 26931  67.0529 342.1299 0006011 265.5755  94.4659 14.30571685966003
SAUDISAT 1C (SO-50)     
1 27607U 02058C   20092.04101945  .00000029  00000-0  24802-4 0  9995
2 27607  64.5543 251.0499 0057652 197.2092 162.7058 14.75620501929309
CUTE-1 (CO-55)          
1 27844U 03031E   20092.25657735  .00000049  00000-0  41788-4 0  9990
2 27844  98.6846 101.1489 0008689 280.1752  79.8446 14.22228735869128
CUBESAT XI-IV (CO-57)   
1 27848U 03031J   20091.97934336  .00000036  00000-0  36213-4 0  9990
2 27848  98.6915 101.4250 0008644 294.6912  65.3365 14.21816734868936
MOZHAYETS 4 (RS-22)     
1 27939U 03042A   20092.16827245  .00000141  00000-0  33940-4 0  9996
2 27939  98.0766 228.0707 0011871 233.8622 126.1486 14.66847224882682
CUBESAT XI-V            
1 28895U 05043F   20092.10125449  .00000140  00000-0  35650-4 0  9991
2 28895  97.9961 230.6796 0017360 160.6144 199.5722 14.63751424769292
CUTE-1.7+APD II (CO-65) 
1 32785U 08021C   20092.02286692  .00000226  00000-0  29935-4 0  9996
2 32785  97.5694  83.4642 0013945  35.9210 324.2943 14.88439383646358
DELFI-C3 (DO-64)        
1 32789U 08021G   20092.14603172  .00001512  00000-0  10336-3 0  9992
2 32789  97.4277 137.6209 0011263 214.0075 146.0432 15.07555919650162
SEEDS II (CO-66)        
1 32791U 08021J   20091.95587704  .00000330  00000-0  38677-4 0  9991
2 32791  97.5393  89.5399 0013438   7.9278 352.2151 14.91003009646838
YUBILEINY (RS-30)       
1 32953U 08025A   20092.37407740  .00000037  00000-0  19437-3 0  9999
2 32953  82.5048 325.8563 0018345 221.0887 138.8813 12.43094851538052
KKS-1 (KISEKI)          
1 33499U 09002H   20092.21166735  .00000091  00000-0  21377-4 0  9997
2 33499  98.3269 304.7490 0009502  19.0011 341.1550 14.75516323601195
SWISSCUBE               
1 35932U 09051B   20091.99433759  .00000123  00000-0  38782-4 0  9996
2 35932  98.6078 271.7960 0007694  13.9115 346.2292 14.56372275558592
BEESAT-1                
1 35933U 09051C   20091.98077392  .00000096  00000-0  32717-4 0  9994
2 35933  98.6084 273.6358 0006211  28.8476 331.3063 14.56450633558700
ITUPSAT1                
1 35935U 09051E   20091.99893855  .00000078  00000-0  29148-4 0  9991
2 35935  98.6192 273.8649 0008473  24.4968 335.6630 14.55599351558401
XIWANG-1 (HOPE-1)       
1 36122U 09072B   20092.48899515 -.00000040  00000-0  44977-5 0  9995
2 36122 100.0887  86.4860 0008054  45.8478 314.3308 13.16353797494740
JUGNU                   
1 37839U 11058B   20092.16262295  .00000302  00000-0  19141-4 0  9996
2 37839  19.9623  31.4846 0018789 255.8149 231.7446 14.12675692437841
SRMSAT                  
1 37841U 11058D   20092.19115655  .00000298  00000-0  18404-4 0  9994
2 37841  19.9716  94.0383 0012051 114.7272 325.8577 14.10654028437246
M-CUBED & EXP-1 PRIME   
1 37855U 11061F   20092.05466658  .00000819  00000-0  48542-4 0  9995
2 37855 101.7196 140.5717 0171262 304.6567  53.8604 15.06123590459556
STRAND-1                
1 39090U 13009E   20092.17794106  .00000002  00000-0  15659-4 0  9994
2 39090  98.4642 297.9288 0009718 148.2388 211.9385 14.35123393371600
SOMP                    
1 39134U 13015E   20092.38099890  .00001435  00000-0  72961-4 0  9991
2 39134  64.8629 167.9012 0036929 256.0973 103.6046 15.20871988384334
BEESAT-3                
1 39135U 13015F   20092.43062588  .00001056  00000-0  60448-4 0  9998
2 39135  64.8684 190.1477 0042903 259.4494 100.1798 15.18038316383919
BEESAT-2                
1 39136U 13015G   20091.72205081  .00000962  00000-0  57449-4 0  9999
2 39136  64.8673 197.1485 0028905 280.7935  78.9937 15.17410519383710
ZACUBE-1 (TSHEPISOSAT)  
1 39417U 13066B   20092.15365196  .00000192  00000-0  30350-4 0  9996
2 39417  97.5649  94.4822 0059136 169.8945 190.3473 14.81242141343590
GOMX-1                  
1 39430U 13066Q   20092.39788505  .00000221  00000-0  48446-4 0  9998
2 39430  97.7842  35.6113 0152462  67.4711 294.2549 14.59366795338568
CUBEBUG-2 (LO-74)       
1 39440U 13066AA  20092.07087485  .00000184  00000-0  32660-4 0  9992
2 39440  97.6260  78.8740 0078900 230.8452 128.5730 14.75980170341167
FUNCUBE-1 (AO-73)       
1 39444U 13066AE  20092.06067333  .00000254  00000-0  37355-4 0  9999
2 39444  97.5599  96.5792 0058456 162.8044 197.5168 14.82087168341900
UWE-3                   
1 39446U 13066AG  20091.98898598  .00000196  00000-0  32612-4 0  9992
2 39446  97.5956  85.9914 0069343 201.3837 158.4474 14.78514335341714
SPROUT                  
1 39770U 14029E   20092.54042753  .00000693  00000-0  82213-4 0  9993
2 39770  97.8906 199.1861 0008044 213.2447 146.8283 14.87667478317620
UNISAT-6                
1 40012U 14033C   20092.15814010  .00000162  00000-0  31550-4 0  9998
2 40012  97.7215 310.7708 0056879 249.5489 109.9608 14.74086195311038
DUCHIFAT-1              
1 40021U 14033M   20091.82810092  .00000476  00000-0  54203-4 0  9995
2 40021  97.9389  22.6102 0012710 177.0755 183.0539 14.90849045314326
QB50P1                  
1 40025U 14033R   20092.04625966  .00000232  00000-0  30608-4 0  9991
2 40025  97.9135  16.3766 0012048 187.4795 172.6244 14.89096520313571
NUDT-PHONESAT           
1 40900U 15049B   20092.10320926  .00001927  00000-0  82919-4 0  9990
2 40900  97.4336 103.7301 0010850 253.6614 176.7752 15.23805315251414
ZDPS 2A                 
1 40901U 15049C   20092.50138054  .00000808  00000-0  42847-4 0  9997
2 40901  97.4638  99.2657 0011625 283.7173 227.5279 15.18156622250892
ZDPS 2B                 
1 40902U 15049D   20092.48289917  .00001232  00000-0  63639-4 0  9994
2 40902  97.4613  96.5500 0011563 280.7537 231.7687 15.18118121250864
XW-2A                   
1 40903U 15049E   20092.46460709  .00001823  00000-0  43522-4 0  9998
2 40903  97.2978 141.3326 0013265 174.4816 298.9813 15.42800911254606
KAITUO 1A               
1 40904U 15049F   20092.48987748  .00000461  00000-0  27733-4 0  9991
2 40904  97.4771  94.7491 0012971 294.4862 216.7157 15.15646058250583
2015-049G               
1 40905U 15049G   20092.51005372  .00000291  00000-0  19381-4 0  9991
2 40905  97.4838  92.0448 0014035 289.4243 188.4946 15.14499291250430
XW-2C                   
1 40906U 15049H   20092.07936640  .00000392  00000-0  23873-4 0  9997
2 40906  97.4770  94.5751 0013040 284.7041 115.9550 15.15983568250532
XW-2D                   
1 40907U 15049J   20092.50105935  .00000515  00000-0  30089-4 0  9995
2 40907  97.4760  94.6873 0012334 279.8115 231.8022 15.16206361250611
LILACSAT-2              
1 40908U 15049K   20092.17746737  .00000377  00000-0  24347-4 0  9996
2 40908  97.4901  92.8269 0014271 291.8348 134.8490 15.13990333250305
XW-2F                   
1 40910U 15049M   20092.09722454  .00000768  00000-0  41294-4 0  9994
2 40910  97.4686  96.7446 0012860 270.5085 160.8283 15.17795549250600
XW-2B                   
1 40911U 15049N   20092.48141758  .00000804  00000-0  45136-4 0  9990
2 40911  97.4765  95.3580 0012266 281.2898 231.2388 15.16135325250501
KAITUO 1B               
1 40912U 15049P   20092.49098146  .00001113  00000-0  54529-4 0  9994
2 40912  97.4505 101.1983 0013001 245.8680 266.9939 15.20172233251029
TIANWANG 1C (TW-1C)     
1 40926U 15051B   20092.43348095  .00020152  00000-0  22371-3 0  9990
2 40926  97.0941 143.8161 0006287  33.3153  91.9905 15.62933512254986
TIANWANG 1A (TW-1A)     
1 40928U 15051D   20092.46273054  .00002879  00000-0  68851-4 0  9997
2 40928  97.1171 122.1538 0012561 104.7083   3.1109 15.42201093253507
LAPAN-A2                
1 40931U 15052B   20091.40559564  .00000692  00000-0  72053-5 0  9999
2 40931   5.9951 171.9497 0014045 254.5394 105.3058 14.76630933243702
E-ST@R-II               
1 41459U 16025D   20092.40658056  .00001867  00000-0  96835-4 0  9991
2 41459  98.0966 198.4319 0167253 110.9205 251.0019 15.06227379215840
AAUSAT 4                
1 41460U 16025E   20092.39400329  .00002434  00000-0  12178-3 0  9997
2 41460  98.0928 200.4801 0155962 100.7195 261.1680 15.08445784216020
NUSAT-1 (FRESCO)        
1 41557U 16033B   20092.42869513  .00001363  00000-0  52776-4 0  9990
2 41557  97.4026 183.1698 0013625   7.9007 352.2444 15.27844970214017
BEESAT-4                
1 41619U 16040W   20091.87810186  .00001488  00000-0  64561-4 0  9990
2 41619  97.3284 153.2211 0012902  93.4097 266.8616 15.23806694197586
CAS-2T & KS-1Q          
1 41847U 16066G   20092.18492642  .00000080  00000-0  21529-4 0  9993
2 41847  98.6645 141.8818 0366848  99.1506 265.1367 14.38051872178319
